TDRS 3                  
1 19548U 88091B   18071.43764475 -.00000303  00000-0  00000+0 0  9996
2 19548  14.4413   5.2486 0038786 316.0051 304.0023  1.00277688 95093
SKYNET 4C               
1 20776U 90079A   18070.47486307  .00000122  00000-0  00000-0 0  9997
2 20776  13.9201  13.4698 0003450 341.5001  18.4914  1.00274751100642
TDRS 5                  
1 21639U 91054B   18070.68869199  .00000081  00000-0  00000-0 0  9991
2 21639  14.5227  18.6230 0025895 344.2842 246.6054  1.00276444 97438
TDRS 6                  
1 22314U 93003B   18070.92756667 -.00000297  00000-0  00000+0 0  9999
2 22314  14.0769  21.6038 0007916 317.5493 118.2058  1.00280218 92105
ASTRA 1D                
1 23331U 94070A   18070.44212670 -.00000276  00000-0  00000+0 0  9999
2 23331   7.9558  47.4076 0003899 301.3879 266.3932  1.00273749 85889
BRASILSAT B2            
1 23536U 95016A   18071.25856939 -.00000288  00000-0  00000+0 0  9992
2 23536   7.5864  49.3061 0002546 318.5557 187.0698  1.00273927 84041
AMSC 1                  
1 23553U 95019A   18069.92328398 -.00000124  00000-0  00000+0 0  9997
2 23553  10.4022  37.5818 0004461 335.4842  24.5368  1.00272179 83889
TDRS 7                  
1 23613U 95035B   18071.09486628 -.00000205  00000-0  00000+0 0  9994
2 23613  15.0510  12.3102 0032880   0.7697 275.6107  1.00273727 82870
INMARSAT 3-F1           
1 23839U 96020A   18071.11851465 -.00000005  00000-0  00000+0 0  9995
2 23839   4.4899  66.2715 0006156 288.0664 282.5178  1.00273513 80340
ASTRA 1F                
1 23842U 96021A   18070.93252512  .00000125  00000-0  00000-0 0  9990
2 23842   0.0465  39.1747 0003608 314.5232 195.8071  1.00271926 22074
MSAT M1                 
1 23846U 96022A   18070.95798868 -.00000093  00000-0  00000+0 0  9990
2 23846   8.1440  46.8732 0006135 309.1201  50.9146  1.00272399 80166
INMARSAT 3-F2           
1 24307U 96053A   18071.30809876 -.00000138  00000-0  00000+0 0  9999
2 24307   3.1720  76.3859 0007840 268.8136 280.1172  1.00271838 78750
AMC-1 (GE-1)            
1 24315U 96054A   18070.12883935  .00000053  00000-0  00000+0 0  9991
2 24315   2.1271  83.7194 0002743 283.4710  77.0096  1.00272146 78741
AFRICASAT-2 (MEASAT-2)  
1 24653U 96063B   18070.77268366 -.00000237  00000-0  00000-0 0  9998
2 24653   7.8825  47.8094 0008662 219.1430 328.5723  1.00273193 78186
INMARSAT 3-F3           
1 24674U 96070A   18071.31716010  .00000024  00000-0  00000+0 0  9996
2 24674   3.9560  70.4814 0005520 285.5454 106.1533  1.00270780 77690
AMC-2 (GE-2)            
1 24713U 97002A   18071.50854222 -.00000223  00000-0  00000+0 0  9997
2 24713   4.8300  64.5644 0005522 295.9472 267.8087  1.00273234 28050
INTELSAT 26 (IS-26)     
1 24732U 97007A   18070.92072947 -.00000021  00000-0  00000-0 0  9991
2 24732   7.8623  48.1570 0004443 333.7424 184.8573  1.00273786 42468
GALAXY 25 (G-25)        
1 24812U 97026A   18070.78806280 -.00000177  00000-0  00000+0 0  9991
2 24812   0.0505  99.2429 0003562 254.8119   5.9194  1.00272601 76088
INTELSAT 5 (IS-5)       
1 24916U 97046A   18071.28687301 -.00000155  00000-0  00000+0 0  9991
2 24916   4.0680  69.7846 0002939 278.7734  81.4705  1.00271368 75345
AMC-3 (GE-3)            
1 24936U 97050A   18071.44189929 -.00000273  00000-0  00000+0 0  9990
2 24936   0.9504  91.2120 0002596 271.0558 254.8348  1.00273203 75171
NSS-5                   
1 24957U 97053A   18070.80850951  .00000095  00000-0  00000-0 0  9997
2 24957   4.3524  67.9810 0003556 292.2034 150.7739  1.00270356 74905
ASTRA 1G                
1 25071U 97076A   18070.81054972  .00000093  00000-0  00000+0 0  9997
2 25071   2.8695  77.3660 0003187 277.4824 157.4331  1.00272597 74265
BRASILSAT B3            
1 25152U 98006A   18069.89409922 -.00000296  00000-0  00000-0 0  9993
2 25152   4.5300  66.9660 0002647 284.7763  75.4221  1.00270391 13231
INMARSAT 3-F5           
1 25153U 98006B   18071.38379229 -.00000300  00000-0  00000+0 0  9992
2 25153   3.1096  73.5507 0004479 290.0799 250.5052  1.00274624 73616
NSS-806                 
1 25239U 98014A   18071.38379229 -.00000293  00000-0  00000+0 0  9997
2 25239   0.0632 346.5935 0004637  13.6650 260.3658  1.00272300 73386
CHINASAT 5A (ZX 5A)     
1 25354U 98033A   18071.07351339 -.00000368  00000-0  00000+0 0  9997
2 25354   1.8092  85.6192 0004921 213.6925  22.2922  1.00265168 76962
THOR III                
1 25358U 98035A   18070.70205421 -.00000055  00000-0  00000+0 0  9995
2 25358   5.8743  57.5874 0002668 297.3464  62.7879  1.00272506 72433
INTELSAT 805 (IS-805)   
1 25371U 98037A   18070.86854757 -.00000045  00000-0  00000+0 0  9990
2 25371   0.5848  93.7038 0003228 265.1081 292.3172  1.00271810 72288
ASTRA 2A                
1 25462U 98050A   18070.93660212 -.00000373  00000-0  00000+0 0  9999
2 25462   0.0687 248.5340 0002318 115.4245 256.2345  1.00270851 71463
JCSAT-4A                
1 25630U 99006A   18070.91643289 -.00000216  00000-0  00000+0 0  9997
2 25630   2.8448  78.6939 0005597 264.8208 305.9047  1.00272955 69725
SKYNET 4E               
1 25639U 99009B   18070.13243760 -.00000039  00000-0  00000+0 0  9996
2 25639  10.3519  26.5880 0003706 325.9865 222.5777  1.00271975 69738
ASIASAT 3S              
1 25657U 99013A   18070.91643289 -.00000249  00000-0  00000-0 0  9991
2 25657   3.0532  77.0098 0003900 272.5212 295.9437  1.00272777 69540
NIMIQ 1                 
1 25740U 99027A   18070.55922178 -.00000213  00000-0  00000+0 0  9996
2 25740   0.0901 281.7694 0004626  74.4186 287.7576  1.00272603 68923
ASTRA 1H                
1 25785U 99033A   18071.48868785 -.00000287  00000-0  00000+0 0  9999
2 25785   4.3383  68.1288 0003120 282.3261 288.4347  1.00270956 68519
ABS-7                   
1 25894U 99046A   18070.94260615 -.00000377  00000-0  00000+0 0  9992
2 25894   0.0104 170.7144 0001970 186.2672 267.9925  1.00275768 66860
ABS-6                   
1 25924U 99053A   18071.08687663 -.00000134  00000-0  00000+0 0  9997
2 25924   0.0227 274.3603 0002281  77.9426   7.6723  1.00271618 67608
TELSTAR 12 (ORION 2)    
1 25949U 99059A   18071.49702081 -.00000076  00000-0  00000+0 0  9992
2 25949   1.5035  87.6994 0002967 270.6918 241.4066  1.00273235 67251
AMC-4 (GE-4)            
1 25954U 99060A   18070.90389247  .00000073  00000-0  00000+0 0  9996
2 25954   0.0158 127.8762 0002413 226.9249   5.1750  1.00273174 67217
GALAXY 11 (G-11)        
1 26038U 99071A   18071.27407116  .00000123  00000-0  00000+0 0  9995
2 26038   0.1002  91.5307 0000392 337.3820 244.5143  1.00271698 66839
SUPERBIRD-B2            
1 26095U 00012A   18070.88839782 -.00000107  00000-0  00000+0 0  9992
2 26095   0.9727  92.0415 0003081 258.9495 300.2721  1.00271724 66151
ASIASTAR                
1 26107U 00016A   18070.91377288 -.00000346  00000-0  00000-0 0  9998
2 26107   2.2290  81.2430 0004376 279.7040 242.4965  1.00270661 65657
EUTELSAT 80A            
1 26369U 00028A   18071.18124598 -.00000116  00000-0  00000+0 0  9999
2 26369   1.5765  85.1396 0006585 269.8864 227.2871  1.00272930 65207
TDRS 8                  
1 26388U 00034A   18071.42957685 -.00000238  00000-0  00000+0 0  9990
2 26388   7.9327  53.6189 0011109 276.2936  83.6876  1.00279762 64907
ECHOSTAR 6              
1 26402U 00038A   18071.49215885 -.00000160  00000-0  00000+0 0  9991
2 26402   4.6888  65.7421 0003612 296.2602 249.0335  1.00271968 64644
INTELSAT 9 (IS-9)       
1 26451U 00043A   18071.13113689 -.00000229  00000-0  00000+0 0  9997
2 26451   4.0541  70.0063 0003236 306.7269 170.6880  1.00271489 64571
BRASILSAT B4            
1 26469U 00046A   18071.01763894 -.00000184  00000-0  00000+0 0  9995
2 26469   2.2127  83.4926 0002956 278.0318  82.4454  1.00273480 64367
NILESAT 102             
1 26470U 00046B   18071.30757793 -.00000072  00000-0  00000+0 0  9996
2 26470   2.2406  82.4455 0005281 268.5642 282.6211  1.00273508 64369
ASTRA 2B                
1 26494U 00054A   18071.30908503 -.00000167  00000-0  00000+0 0  9993
2 26494   2.7610  78.0346 0006070 292.2073 251.3066  1.00271872 63964
AMC-7 (GE-7)            
1 26495U 00054B   18070.90413346  .00000074  00000-0  00000+0 0  9991
2 26495   0.0258  88.3953 0002395 216.8465  54.7144  1.00270770 63985
NSS-11 (AAP-1)          
1 26554U 00059A   18070.85813117  .00000010  00000-0  00000+0 0  9996
2 26554   0.0428 304.2310 0002799  61.2243 288.9079  1.00271495 63906
N-SAT-110 (JCSAT-110)   
1 26559U 00060A   18070.92879429 -.00000366  00000-0  00000-0 0  9995
2 26559   0.0241 108.5397 0001499 344.9656 160.4354  1.00271151 11002
AMC-6 (GE-6)            
1 26580U 00067A   18070.83587594 -.00000230  00000-0  00000-0 0  9995
2 26580   0.0354 297.9419 0002643  78.9322  10.4488  1.00271391 63695
INTELSAT 12 (IS-12)     
1 26590U 00068A   18070.81038964  .00000122  00000-0  00000-0 0  9996
2 26590   1.0569  91.3026 0002660 261.6237 153.1873  1.00272777 21449
INTELSAT 1R (IS-1R)     
1 26608U 00072A   18071.46250240 -.00000151  00000-0  00000+0 0  9998
2 26608   0.8699  92.6946 0002339 250.0973 150.8528  1.00272503 63384
ANIK F1                 
1 26624U 00076A   18070.82753763 -.00000088  00000-0  00000+0 0  9996
2 26624   0.0165 157.3753 0001110 244.0374 318.5742  1.00272282 63454
ASTRA 2D                
1 26638U 00081A   18070.55616766  .00000034  00000-0  00000-0 0  9999
2 26638   4.1647  68.8119 0002315 269.6650  90.5678  1.00272740 22638
AMC-8 (GE-8)            
1 26639U 00081B   18071.42618803  .00000090  00000-0  00000+0 0  9992
2 26639   0.0303 294.5455 0002373  19.4921 230.3880  1.00273819 63003
SKYNET 4F               
1 26695U 01005B   18070.28032185 -.00000257  00000-0  00000+0 0  9993
2 26695   9.1907  34.7883 0002829 310.7959 250.2244  1.00274986 62592
EUTELSAT 33C            
1 26719U 01011A   18071.43448914  .00000141  00000-0  00000+0 0  9997
2 26719   0.1224  70.0589 0006174 301.9960 347.4492  1.00271961 62313
